{
  "type": "FeatureCollection",
  "features": [
    {
      "type": "Feature",
      "properties": {
        "norad_id": 43823,
        "name": "GEO-KOMPSAT-2A",
        "group": "weather",
        "lat": -0.030841922036357876,
        "lon": -27.963212121782554,
        "alt_km": 35787.499107735915,
        "timestamp": "2025-12-21T07:34:34.187752+00:00",
        "meta_object_name": "GEO-KOMPSAT-2A",
        "meta_object_id": "2018-100A",
        "meta_epoch": "2025-12-20T22:23:59.335296",
        "meta_mean_motion": 1.00271011,
        "meta_eccentricity": 4.139e-05,
        "meta_inclination": 0.0521,
        "meta_ra_of_asc_node": 137.1439,
        "meta_arg_of_pericenter": 325.6061,
        "meta_mean_anomaly": 91.278,
        "meta_ephemeris_type": 0,
        "meta_classification_type": "U",
        "meta_norad_cat_id": 43823,
        "meta_element_set_no": 999,
        "meta_rev_at_epoch": 2584,
        "meta_bstar": 0,
        "meta_mean_motion_dot": -3.2e-06,
        "meta_mean_motion_ddot": 0,
        "tle_line1": "1 43823U 18100A   25354.93332564 -.00000320  00000+0  00000+0 0  9998",
        "tle_line2": "2 43823   0.0521 137.1439 0000413 325.6061  91.2780  1.00271011 25848"
      },
      "geometry": {
        "type": "Point",
        "coordinates": [
          -27.963212121782554,
          -0.030841922036357876
        ]
      }
    },
    {
      "type": "Feature",
      "properties": {
        "norad_id": 44387,
        "name": "METEOR-M2 2",
        "group": "weather",
        "lat": 42.252478421763094,
        "lon": -33.03164554175871,
        "alt_km": 807.33119220354,
        "timestamp": "2025-12-21T07:34:34.187762+00:00",
        "meta_object_name": "METEOR-M2 2",
        "meta_object_id": "2019-038A",
        "meta_epoch": "2025-12-20T22:56:43.713600",
        "meta_mean_motion": 14.24293828,
        "meta_eccentricity": 0.00016338,
        "meta_inclination": 98.8972,
        "meta_ra_of_asc_node": 334.7853,
        "meta_arg_of_pericenter": 132.1339,
        "meta_mean_anomaly": 227.9978,
        "meta_ephemeris_type": 0,
        "meta_classification_type": "U",
        "meta_norad_cat_id": 44387,
        "meta_element_set_no": 999,
        "meta_rev_at_epoch": 33592,
        "meta_bstar": -6.7668187e-05,
        "meta_mean_motion_dot": -2.02e-06,
        "meta_mean_motion_ddot": 0,
        "tle_line1": "1 44387U 19038A   25354.95606150 -.00000202  00000+0 -67668-4 0  9990",
        "tle_line2": "2 44387  98.8972 334.7853 0001633 132.1339 227.9978 14.24293828335928"
      },
      "geometry": {
        "type": "Point",
        "coordinates": [
          -33.03164554175871,
          42.252478421763094
        ]
      }
    },
    {
      "type": "Feature",
      "properties": {
        "norad_id": 47719,
        "name": "ARKTIKA-M 1",
        "group": "weather",
        "lat": 62.6272305668253,
        "lon": -174.54006557436514,
        "alt_km": 38513.861035694455,
        "timestamp": "2025-12-21T07:34:34.187773+00:00",
        "meta_object_name": "ARKTIKA-M 1",
        "meta_object_id": "2021-016A",
        "meta_epoch": "2025-12-20T01:15:32.338368",
        "meta_mean_motion": 2.00630446,
        "meta_eccentricity": 0.72079263,
        "meta_inclination": 63.1764,
        "meta_ra_of_asc_node": 82.997,
        "meta_arg_of_pericenter": 269.153,
        "meta_mean_anomaly": 15.5565,
        "meta_ephemeris_type": 0,
        "meta_classification_type": "U",
        "meta_norad_cat_id": 47719,
        "meta_element_set_no": 999,
        "meta_rev_at_epoch": 3519,
        "meta_bstar": 0,
        "meta_mean_motion_dot": -1.14e-06,
        "meta_mean_motion_ddot": 0,
        "tle_line1": "1 47719U 21016A   25354.05245762 -.00000114  00000+0  00000+0 0  9993",
        "tle_line2": "2 47719  63.1764  82.9970 7207926 269.1530  15.5565  2.00630446 35191"
      },
      "geometry": {
        "type": "Point",
        "coordinates": [
          -174.54006557436514,
          62.6272305668253
        ]
      }
    },
    {
      "type": "Feature",
      "properties": {
        "norad_id": 49008,
        "name": "FENGYUN 3E",
        "group": "weather",
        "lat": -45.50358267985665,
        "lon": 166.72030840983683,
        "alt_km": 831.9059030919007,
        "timestamp": "2025-12-21T07:34:34.187784+00:00",
        "meta_object_name": "FENGYUN 3E",
        "meta_object_id": "2021-062A",
        "meta_epoch": "2025-12-20T23:44:58.386624",
        "meta_mean_motion": 14.19881387,
        "meta_eccentricity": 8.06e-05,
        "meta_inclination": 98.7469,
        "meta_ra_of_asc_node": 355.4128,
        "meta_arg_of_pericenter": 207.1956,
        "meta_mean_anomaly": 152.9178,
        "meta_ephemeris_type": 0,
        "meta_classification_type": "U",
        "meta_norad_cat_id": 49008,
        "meta_element_set_no": 999,
        "meta_rev_at_epoch": 23129,
        "meta_bstar": 8.0266136e-05,
        "meta_mean_motion_dot": 1.26e-06,
        "meta_mean_motion_ddot": 0,
        "tle_line1": "1 49008U 21062A   25354.98956466  .00000126  00000+0  80266-4 0  9998",
        "tle_line2": "2 49008  98.7469 355.4128 0000806 207.1956 152.9178 14.19881387231298"
      },
      "geometry": {
        "type": "Point",
        "coordinates": [
          166.72030840983683,
          -45.50358267985665
        ]
      }
    },
    {
      "type": "Feature",
      "properties": {
        "norad_id": 51850,
        "name": "GOES 18",
        "group": "weather",
        "lat": -0.005863070006173833,
        "lon": 66.79250538308999,
        "alt_km": 35785.63087469171,
        "timestamp": "2025-12-21T07:34:34.187797+00:00",
        "meta_object_name": "GOES 18",
        "meta_object_id": "2022-021A",
        "meta_epoch": "2025-12-20T17:42:56.251584",
        "meta_mean_motion": 1.00273162,
        "meta_eccentricity": 4.934e-05,
        "meta_inclination": 0.0209,
        "meta_ra_of_asc_node": 179.1955,
        "meta_arg_of_pericenter": 158.0343,
        "meta_mean_anomaly": 241.0852,
        "meta_ephemeris_type": 0,
        "meta_classification_type": "U",
        "meta_norad_cat_id": 51850,
        "meta_element_set_no": 999,
        "meta_rev_at_epoch": 480,
        "meta_bstar": 0,
        "meta_mean_motion_dot": 1.2e-06,
        "meta_mean_motion_ddot": 0,
        "tle_line1": "1 51850U 22021A   25354.73815106  .00000120  00000+0  00000+0 0  9997",
        "tle_line2": "2 51850   0.0209 179.1955 0000493 158.0343 241.0852  1.00273162  4805"
      },
      "geometry": {
        "type": "Point",
        "coordinates": [
          66.79250538308999,
          -0.005863070006173833
        ]
      }
    },
    {
      "type": "Feature",
      "properties": {
        "norad_id": 54234,
        "name": "NOAA 21 (JPSS-2)",
        "group": "weather",
        "lat": -41.055206600728646,
        "lon": 103.81065319487922,
        "alt_km": 834.7163407311627,
        "timestamp": "2025-12-21T07:34:34.187807+00:00",
        "meta_object_name": "NOAA 21 (JPSS-2)",
        "meta_object_id": "2022-150A",
        "meta_epoch": "2025-12-20T22:04:38.462304",
        "meta_mean_motion": 14.19526224,
        "meta_eccentricity": 0.00018589,
        "meta_inclination": 98.7473,
        "meta_ra_of_asc_node": 291.1264,
        "meta_arg_of_pericenter": 21.6312,
        "meta_mean_anomaly": 338.4943,
        "meta_ephemeris_type": 0,
        "meta_classification_type": "U",
        "meta_norad_cat_id": 54234,
        "meta_element_set_no": 999,
        "meta_rev_at_epoch": 16125,
        "meta_bstar": 4.3119483e-05,
        "meta_mean_motion_dot": 4.7e-07,
        "meta_mean_motion_ddot": 0,
        "tle_line1": "1 54234U 22150A   25354.91988961  .00000047  00000+0  43119-4 0  9990",
        "tle_line2": "2 54234  98.7473 291.1264 0001858  21.6312 338.4943 14.19526224161255"
      },
      "geometry": {
        "type": "Point",
        "coordinates": [
          103.81065319487922,
          -41.055206600728646
        ]
      }
    },
    {
      "type": "Feature",
      "properties": {
        "norad_id": 54743,
        "name": "METEOSAT-12 (MTG-I1)",
        "group": "weather",
        "lat": 0.008488206190554647,
        "lon": -156.55418492700997,
        "alt_km": 35783.37652210988,
        "timestamp": "2025-12-21T07:34:34.187818+00:00",
        "meta_object_name": "METEOSAT-12 (MTG-I1)",
        "meta_object_id": "2022-170C",
        "meta_epoch": "2025-12-20T21:47:17.848608",
        "meta_mean_motion": 1.00270623,
        "meta_eccentricity": 0.00014861,
        "meta_inclination": 0.6952,
        "meta_ra_of_asc_node": 24.9682,
        "meta_arg_of_pericenter": 239.83,
        "meta_mean_anomaly": 151.4522,
        "meta_ephemeris_type": 0,
        "meta_classification_type": "U",
        "meta_norad_cat_id": 54743,
        "meta_element_set_no": 999,
        "meta_rev_at_epoch": 1119,
        "meta_bstar": 0,
        "meta_mean_motion_dot": 1.5e-07,
        "meta_mean_motion_ddot": 0,
        "tle_line1": "1 54743U 22170C   25354.90784547  .00000015  00000+0  00000+0 0  9992",
        "tle_line2": "2 54743   0.6952  24.9682 0001486 239.8300 151.4522  1.00270623 11195"
      },
      "geometry": {
        "type": "Point",
        "coordinates": [
          -156.55418492700997,
          0.008488206190554647
        ]
      }
    }
  ]
}